22275,NAVSTAR 29 (USA 87),1992,764.95,-1.0,-,54.93,Inactive,0,MEO,USA,USA,Unknown,Unknown,Unknown,1 22275U 92089A   25122.16633175  .00000038  00000+0  00000+0 0  9999,2 22275  54.9301 142.5403 0070167  74.2300 307.8903  1.88246725229149,1.88246725,0.0070167,MEO
22581,NAVSTAR 31 (USA 90),1993,762.12,-1.0,-,54.51,Inactive,0,MEO,USA,USA,Unknown,Unknown,Unknown,1 22581U 93017A   25121.94427666 -.00000064  00000+0  00000+0 0  9992,2 22581  54.5053 312.9621 0003367  93.4305  88.0871  1.88946285 81416,1.88946285,0.0003367,MEO
22657,NAVSTAR 32 (USA 91),1993,767.2,-1.0,-,53.9,Inactive,0,MEO,USA,USA,Unknown,Unknown,Unknown,1 22657U 93032A   25120.59005432 -.00000045  00000+0  00000+0 0  9995,2 22657  53.9014 295.4751 0040369  84.1470 234.5384  1.87695735226151,1.87695735,0.0040369,MEO
22700,NAVSTAR 33 (USA 92),1993,760.17,-1.0,-,54.71,Inactive,0,MEO,USA,USA,Unknown,Unknown,Unknown,1 22700U 93042A   25122.58185164  .00000002  00000+0  00000+0 0  9999,2 22700  54.7061 183.2348 0010937  24.3504  22.8539  1.89432110229352,1.8943211,0.0010937,MEO
22779,NAVSTAR 34 (USA 94),1993,761.38,-1.0,-,53.42,Inactive,0,MEO,USA,USA,Unknown,Unknown,Unknown,1 22779U 93054A   25123.78538233 -.00000040  00000+0  00000+0 0  9993,2 22779  53.4237 232.6210 0051595 246.8736 113.5133  1.89129687228280,1.89129687,0.0051595,MEO
23027,NAVSTAR 36 (USA 100),1994,771.4,-1.0,-,53.48,Inactive,0,MEO,USA,USA,Unknown,Unknown,Unknown,1 23027U 94016A   25123.82404900 -.00000045  00000+0  00000+0 0  9992,2 23027  53.4848 288.7008 0032988 209.7266 220.1031  1.86674645225581,1.86674645,0.0032988,MEO
23833,NAVSTAR 37 (USA 117),1996,739.91,-1.0,-,53.16,Inactive,0,MEO,USA,USA,Unknown,Unknown,Unknown,1 23833U 96019A   25122.42404993 -.00000033  00000+0  00000+0 0  9996,2 23833  53.1560 281.4324 0008708  19.3910 352.7995  1.94619097 74772,1.94619097,0.0008708,MEO
23953,NAVSTAR 38 (USA 126),1996,763.13,-1.0,-,55.66,Inactive,0,MEO,USA,USA,Unknown,Unknown,Unknown,1 23953U 96041A   25122.34318880 -.00000050  00000+0  00000+0 0  9993,2 23953  55.6574  60.8144 0060887 102.1392  82.2767  1.88695589207039,1.88695589,0.0060887,MEO
24320,NAVSTAR 39 (USA 128),1996,772.12,-1.0,-,53.93,Inactive,0,MEO,USA,USA,Unknown,Unknown,Unknown,1 24320U 96056A   25117.58499351 -.00000017  00000+0  00000+0 0  9994,2 24320  53.9319 251.3207 0029081 207.9959 146.8961  1.86499079202758,1.86499079,0.0029081,MEO
25030,NAVSTAR 44 (USA 135),1997,764.18,-1.0,-,55.6,Inactive,0,MEO,USA,USA,Unknown,Unknown,Unknown,1 25030U 97067A   25123.32023813 -.00000007  00000+0  00000+0 0  9990,2 25030  55.5973 187.2759 0020754 256.4989  72.4436  1.88437737198963,1.88437737,0.0020754,MEO
