[
    {
        "OBJECT_NAME": "NAVSTAR 29 (USA 87)",
        "OBJECT_ID": "1992-089A",
        "EPOCH": "2025-05-02T03:59:31.063200",
        "MEAN_MOTION": 1.88246725,
        "ECCENTRICITY": 0.0070167,
        "INCLINATION": 54.9301,
        "RA_OF_ASC_NODE": 142.5403,
        "ARG_OF_PERICENTER": 74.23,
        "MEAN_ANOMALY": 307.8903,
        "EPHEMERIS_TYPE": 0,
        "CLASSIFICATION_TYPE": "U",
        "NORAD_CAT_ID": 22275,
        "ELEMENT_SET_NO": 999,
        "REV_AT_EPOCH": 22914,
        "BSTAR": 0,
        "MEAN_MOTION_DOT": 3.8e-07,
        "MEAN_MOTION_DDOT": 0
    },
    {
        "OBJECT_NAME": "NAVSTAR 31 (USA 90)",
        "OBJECT_ID": "1993-017A",
        "EPOCH": "2025-05-01T22:39:45.503424",
        "MEAN_MOTION": 1.88946285,
        "ECCENTRICITY": 0.0003367,
        "INCLINATION": 54.5053,
        "RA_OF_ASC_NODE": 312.9621,
        "ARG_OF_PERICENTER": 93.4305,
        "MEAN_ANOMALY": 88.0871,
        "EPHEMERIS_TYPE": 0,
        "CLASSIFICATION_TYPE": "U",
        "NORAD_CAT_ID": 22581,
        "ELEMENT_SET_NO": 999,
        "REV_AT_EPOCH": 8141,
        "BSTAR": 0,
        "MEAN_MOTION_DOT": -6.4e-07,
        "MEAN_MOTION_DDOT": 0
    },
    {
        "OBJECT_NAME": "NAVSTAR 32 (USA 91)",
        "OBJECT_ID": "1993-032A",
        "EPOCH": "2025-04-30T14:09:40.693248",
        "MEAN_MOTION": 1.87695735,
        "ECCENTRICITY": 0.0040369,
        "INCLINATION": 53.9014,
        "RA_OF_ASC_NODE": 295.4751,
        "ARG_OF_PERICENTER": 84.147,
        "MEAN_ANOMALY": 234.5384,
        "EPHEMERIS_TYPE": 0,
        "CLASSIFICATION_TYPE": "U",
        "NORAD_CAT_ID": 22657,
        "ELEMENT_SET_NO": 999,
        "REV_AT_EPOCH": 22615,
        "BSTAR": 0,
        "MEAN_MOTION_DOT": -4.5e-07,
        "MEAN_MOTION_DDOT": 0
    },
    {
        "OBJECT_NAME": "NAVSTAR 33 (USA 92)",
        "OBJECT_ID": "1993-042A",
        "EPOCH": "2025-05-02T13:57:51.981696",
        "MEAN_MOTION": 1.8943211,
        "ECCENTRICITY": 0.0010937,
        "INCLINATION": 54.7061,
        "RA_OF_ASC_NODE": 183.2348,
        "ARG_OF_PERICENTER": 24.3504,
        "MEAN_ANOMALY": 22.8539,
        "EPHEMERIS_TYPE": 0,
        "CLASSIFICATION_TYPE": "U",
        "NORAD_CAT_ID": 22700,
        "ELEMENT_SET_NO": 999,
        "REV_AT_EPOCH": 22935,
        "BSTAR": 0,
        "MEAN_MOTION_DOT": 2e-08,
        "MEAN_MOTION_DDOT": 0
    },
    {
        "OBJECT_NAME": "NAVSTAR 34 (USA 94)",
        "OBJECT_ID": "1993-054A",
        "EPOCH": "2025-05-03T18:50:57.033312",
        "MEAN_MOTION": 1.89129687,
        "ECCENTRICITY": 0.0051595,
        "INCLINATION": 53.4237,
        "RA_OF_ASC_NODE": 232.621,
        "ARG_OF_PERICENTER": 246.8736,
        "MEAN_ANOMALY": 113.5133,
        "EPHEMERIS_TYPE": 0,
        "CLASSIFICATION_TYPE": "U",
        "NORAD_CAT_ID": 22779,
        "ELEMENT_SET_NO": 999,
        "REV_AT_EPOCH": 22828,
        "BSTAR": 0,
        "MEAN_MOTION_DOT": -4e-07,
        "MEAN_MOTION_DDOT": 0
    },
    {
        "OBJECT_NAME": "NAVSTAR 36 (USA 100)",
        "OBJECT_ID": "1994-016A",
        "EPOCH": "2025-05-03T19:46:37.833600",
        "MEAN_MOTION": 1.86674645,
        "ECCENTRICITY": 0.0032988,
        "INCLINATION": 53.4848,
        "RA_OF_ASC_NODE": 288.7008,
        "ARG_OF_PERICENTER": 209.7266,
        "MEAN_ANOMALY": 220.1031,
        "EPHEMERIS_TYPE": 0,
        "CLASSIFICATION_TYPE": "U",
        "NORAD_CAT_ID": 23027,
        "ELEMENT_SET_NO": 999,
        "REV_AT_EPOCH": 22558,
        "BSTAR": 0,
        "MEAN_MOTION_DOT": -4.5e-07,
        "MEAN_MOTION_DDOT": 0
    },
    {
        "OBJECT_NAME": "NAVSTAR 37 (USA 117)",
        "OBJECT_ID": "1996-019A",
        "EPOCH": "2025-05-02T10:10:37.913952",
        "MEAN_MOTION": 1.94619097,
        "ECCENTRICITY": 0.0008708,
        "INCLINATION": 53.156,
        "RA_OF_ASC_NODE": 281.4324,
        "ARG_OF_PERICENTER": 19.391,
        "MEAN_ANOMALY": 352.7995,
        "EPHEMERIS_TYPE": 0,
        "CLASSIFICATION_TYPE": "U",
        "NORAD_CAT_ID": 23833,
        "ELEMENT_SET_NO": 999,
        "REV_AT_EPOCH": 7477,
        "BSTAR": 0,
        "MEAN_MOTION_DOT": -3.3e-07,
        "MEAN_MOTION_DDOT": 0
    },
    {
        "OBJECT_NAME": "NAVSTAR 38 (USA 126)",
        "OBJECT_ID": "1996-041A",
        "EPOCH": "2025-05-02T08:14:11.512320",
        "MEAN_MOTION": 1.88695589,
        "ECCENTRICITY": 0.0060887,
        "INCLINATION": 55.6574,
        "RA_OF_ASC_NODE": 60.8144,
        "ARG_OF_PERICENTER": 102.1392,
        "MEAN_ANOMALY": 82.2767,
        "EPHEMERIS_TYPE": 0,
        "CLASSIFICATION_TYPE": "U",
        "NORAD_CAT_ID": 23953,
        "ELEMENT_SET_NO": 999,
        "REV_AT_EPOCH": 20703,
        "BSTAR": 0,
        "MEAN_MOTION_DOT": -5e-07,
        "MEAN_MOTION_DDOT": 0
    },
    {
        "OBJECT_NAME": "NAVSTAR 39 (USA 128)",
        "OBJECT_ID": "1996-056A",
        "EPOCH": "2025-04-27T14:02:23.439264",
        "MEAN_MOTION": 1.86499079,
        "ECCENTRICITY": 0.0029081,
        "INCLINATION": 53.9319,
        "RA_OF_ASC_NODE": 251.3207,
        "ARG_OF_PERICENTER": 207.9959,
        "MEAN_ANOMALY": 146.8961,
        "EPHEMERIS_TYPE": 0,
        "CLASSIFICATION_TYPE": "U",
        "NORAD_CAT_ID": 24320,
        "ELEMENT_SET_NO": 999,
        "REV_AT_EPOCH": 20275,
        "BSTAR": 0,
        "MEAN_MOTION_DOT": -1.7e-07,
        "MEAN_MOTION_DDOT": 0
    },
    {
        "OBJECT_NAME": "NAVSTAR 44 (USA 135)",
        "OBJECT_ID": "1997-067A",
        "EPOCH": "2025-05-03T07:41:08.574432",
        "MEAN_MOTION": 1.88437737,
        "ECCENTRICITY": 0.0020754,
        "INCLINATION": 55.5973,
        "RA_OF_ASC_NODE": 187.2759,
        "ARG_OF_PERICENTER": 256.4989,
        "MEAN_ANOMALY": 72.4436,
        "EPHEMERIS_TYPE": 0,
        "CLASSIFICATION_TYPE": "U",
        "NORAD_CAT_ID": 25030,
        "ELEMENT_SET_NO": 999,
        "REV_AT_EPOCH": 19896,
        "BSTAR": 0,
        "MEAN_MOTION_DOT": -7e-08,
        "MEAN_MOTION_DDOT": 0
    }
]